ONEWEB-0283             
1 49001U 21060AL  24307.37303253 -.00000075  00000+0 -23063-3 0  9995
2 49001  87.9113 346.6895 0002075  94.0469 266.0899 13.16593448161745
ONEWEB-0284             
1 49002U 21060AM  24307.59468828  .00000081  00000+0  17958-3 0  9991
2 49002  87.9105 346.6211 0001618  90.2557 269.8759 13.16595350161758
ONEWEB-0285             
1 49075U 21075A   24307.53613567  .00000251  00000+0  66309-3 0  9996
2 49075  87.8844 108.4876 0001446  88.5720 271.5575 13.12443139157607
ONEWEB-0286             
1 49076U 21075B   24307.43137347  .00000300  00000+0  79937-3 0  9999
2 49076  87.8843 108.5073 0001276  97.0848 263.0426 13.12444940156942
ONEWEB-0287             
1 49077U 21075C   24307.47203217  .00000056  00000+0  11048-3 0  9991
2 49077  87.9072 123.7388 0001253  86.7879 273.3396 13.17648408155703
ONEWEB-0288             
1 49078U 21075D   24307.41758684 -.00000004  00000+0 -47180-4 0  9991
2 49078  87.8842 108.5133 0001369  87.5130 272.6155 13.12442747157568
ONEWEB-0289             
1 49079U 21075E   24307.50071398  .00000300  00000+0  74001-3 0  9990
2 49079  87.9079 123.7616 0001494  82.1020 278.0281 13.17644169156280
ONEWEB-0290             
1 49080U 21075F   24307.48384618  .00000040  00000+0  71023-4 0  9994
2 49080  87.9071 123.7245 0001802  63.5764 296.5552 13.17648264155693
